{
  "type": "FeatureCollection",
  "features": [
    {
      "type": "Feature",
      "properties": {
        "norad_id": 66955,
        "name": "HULIANWANG DIGUI-116",
        "group": "last-30-days",
        "lat": 75.13675604738707,
        "lon": 147.4375153410785,
        "alt_km": 1012.2769602519311,
        "timestamp": "2025-12-27T10:28:57.516814+00:00",
        "meta_object_name": "HULIANWANG DIGUI-116",
        "meta_object_id": "2025-287C",
        "meta_epoch": "2025-12-24T23:52:55.515936",
        "meta_mean_motion": 13.64194122,
        "meta_eccentricity": 0.00016332,
        "meta_inclination": 86.4919,
        "meta_ra_of_asc_node": 341.6856,
        "meta_arg_of_pericenter": 94.3011,
        "meta_mean_anomaly": 265.8333,
        "meta_ephemeris_type": 0,
        "meta_classification_type": "U",
        "meta_norad_cat_id": 66955,
        "meta_element_set_no": 999,
        "meta_rev_at_epoch": 220,
        "meta_bstar": 0.0001652864,
        "meta_mean_motion_dot": 1.48e-06,
        "meta_mean_motion_ddot": 0,
        "tle_line1": "1 66955U 25287C   25358.99508699  .00000148  00000+0  16529-3 0  9991",
        "tle_line2": "2 66955  86.4919 341.6856 0001633  94.3011 265.8333 13.64194122  2201"
      },
      "geometry": {
        "type": "Point",
        "coordinates": [
          147.4375153410785,
          75.13675604738707
        ]
      }
    },
    {
      "type": "Feature",
      "properties": {
        "norad_id": 66956,
        "name": "HULIANWANG DIGUI-117",
        "group": "last-30-days",
        "lat": 58.03116931818154,
        "lon": 155.1834829025379,
        "alt_km": 1012.5364610777233,
        "timestamp": "2025-12-27T10:28:57.516824+00:00",
        "meta_object_name": "HULIANWANG DIGUI-117",
        "meta_object_id": "2025-287D",
        "meta_epoch": "2025-12-24T22:03:29.281824",
        "meta_mean_motion": 13.64670553,
        "meta_eccentricity": 0.00010447,
        "meta_inclination": 86.4976,
        "meta_ra_of_asc_node": 341.7257,
        "meta_arg_of_pericenter": 103.5815,
        "meta_mean_anomaly": 256.5458,
        "meta_ephemeris_type": 0,
        "meta_classification_type": "U",
        "meta_norad_cat_id": 66956,
        "meta_element_set_no": 999,
        "meta_rev_at_epoch": 219,
        "meta_bstar": 9.025962e-06,
        "meta_mean_motion_dot": 2.4e-07,
        "meta_mean_motion_ddot": 0,
        "tle_line1": "1 66956U 25287D   25358.91908891  .00000024  00000+0  90260-5 0  9991",
        "tle_line2": "2 66956  86.4976 341.7257 0001044 103.5815 256.5458 13.64670553  2192"
      },
      "geometry": {
        "type": "Point",
        "coordinates": [
          155.1834829025379,
          58.03116931818154
        ]
      }
    },
    {
      "type": "Feature",
      "properties": {
        "norad_id": 66957,
        "name": "HULIANWANG DIGUI-118",
        "group": "last-30-days",
        "lat": 1.666950548580653,
        "lon": 160.6985948437801,
        "alt_km": 1007.62129953776,
        "timestamp": "2025-12-27T10:28:57.516834+00:00",
        "meta_object_name": "HULIANWANG DIGUI-118",
        "meta_object_id": "2025-287E",
        "meta_epoch": "2025-12-21T00:50:13.849728",
        "meta_mean_motion": 13.6751011,
        "meta_eccentricity": 0.00054729,
        "meta_inclination": 86.4946,
        "meta_ra_of_asc_node": 343.1304,
        "meta_arg_of_pericenter": 170.9065,
        "meta_mean_anomaly": 189.2194,
        "meta_ephemeris_type": 0,
        "meta_classification_type": "U",
        "meta_norad_cat_id": 66957,
        "meta_element_set_no": 999,
        "meta_rev_at_epoch": 166,
        "meta_bstar": 0.00013223305,
        "meta_mean_motion_dot": 1.28e-06,
        "meta_mean_motion_ddot": 0,
        "tle_line1": "1 66957U 25287E   25355.03488252  .00000128  00000+0  13223-3 0  9993",
        "tle_line2": "2 66957  86.4946 343.1304 0005472 170.9065 189.2194 13.67510110  1668"
      },
      "geometry": {
        "type": "Point",
        "coordinates": [
          160.6985948437801,
          1.666950548580653
        ]
      }
    },
    {
      "type": "Feature",
      "properties": {
        "norad_id": 66958,
        "name": "CZ-6A R/B",
        "group": "last-30-days",
        "lat": 33.390273356379936,
        "lon": 158.2059474838839,
        "alt_km": 906.523050345606,
        "timestamp": "2025-12-27T10:28:57.516844+00:00",
        "meta_object_name": "CZ-6A R/B",
        "meta_object_id": "2025-287F",
        "meta_epoch": "2025-12-26T23:27:51.481152",
        "meta_mean_motion": 13.94921923,
        "meta_eccentricity": 0.01070558,
        "meta_inclination": 86.5066,
        "meta_ra_of_asc_node": 340.6879,
        "meta_arg_of_pericenter": 59.3506,
        "meta_mean_anomaly": 301.8169,
        "meta_ephemeris_type": 0,
        "meta_classification_type": "U",
        "meta_norad_cat_id": 66958,
        "meta_element_set_no": 999,
        "meta_rev_at_epoch": 252,
        "meta_bstar": 7.5983134e-05,
        "meta_mean_motion_dot": 1.26e-06,
        "meta_mean_motion_ddot": 0,
        "tle_line1": "1 66958U 25287F   25360.97767918  .00000126  00000+0  75983-4 0  9992",
        "tle_line2": "2 66958  86.5066 340.6879 0107055  59.3506 301.8169 13.94921923  2520"
      },
      "geometry": {
        "type": "Point",
        "coordinates": [
          158.2059474838839,
          33.390273356379936
        ]
      }
    },
    {
      "type": "Feature",
      "properties": {
        "norad_id": 66959,
        "name": "STARLINK-35887",
        "group": "last-30-days",
        "lat": -5.51958548275114,
        "lon": 71.9489797198719,
        "alt_km": 399.5086744256305,
        "timestamp": "2025-12-27T10:28:57.516856+00:00",
        "meta_object_name": "STARLINK-35887",
        "meta_object_id": "2025-288A",
        "meta_epoch": "2025-12-27T04:00:01.998720",
        "meta_mean_motion": 15.5718951,
        "meta_eccentricity": 0.0001405,
        "meta_inclination": 42.9997,
        "meta_ra_of_asc_node": 79.4959,
        "meta_arg_of_pericenter": 267.2651,
        "meta_mean_anomaly": 9.3846,
        "meta_ephemeris_type": 0,
        "meta_classification_type": "U",
        "meta_norad_cat_id": 66959,
        "meta_element_set_no": 999,
        "meta_rev_at_epoch": 414,
        "meta_bstar": -0.030742,
        "meta_mean_motion_dot": -0.02049559,
        "meta_mean_motion_ddot": 0,
        "tle_line1": "1 66959U 25288A   25361.16668980 -.02049559  00000+0 -30742-1 0  9993",
        "tle_line2": "2 66959  42.9997  79.4959 0001405 267.2651   9.3846 15.57189510  4140"
      },
      "geometry": {
        "type": "Point",
        "coordinates": [
          71.9489797198719,
          -5.51958548275114
        ]
      }
    },
    {
      "type": "Feature",
      "properties": {
        "norad_id": 66960,
        "name": "STARLINK-35879",
        "group": "last-30-days",
        "lat": -4.220145431376824,
        "lon": 73.35433349999283,
        "alt_km": 399.4663892134213,
        "timestamp": "2025-12-27T10:28:57.516867+00:00",
        "meta_object_name": "STARLINK-35879",
        "meta_object_id": "2025-288B",
        "meta_epoch": "2025-12-27T04:00:01.998720",
        "meta_mean_motion": 15.57183297,
        "meta_eccentricity": 0.0001241,
        "meta_inclination": 42.9998,
        "meta_ra_of_asc_node": 79.4906,
        "meta_arg_of_pericenter": 263.7526,
        "meta_mean_anomaly": 14.8167,
        "meta_ephemeris_type": 0,
        "meta_classification_type": "U",
        "meta_norad_cat_id": 66960,
        "meta_element_set_no": 999,
        "meta_rev_at_epoch": 414,
        "meta_bstar": -0.030615,
        "meta_mean_motion_dot": -0.02041494,
        "meta_mean_motion_ddot": 0,
        "tle_line1": "1 66960U 25288B   25361.16668980 -.02041494  00000+0 -30615-1 0  9994",
        "tle_line2": "2 66960  42.9998  79.4906 0001241 263.7526  14.8167 15.57183297  4148"
      },
      "geometry": {
        "type": "Point",
        "coordinates": [
          73.35433349999283,
          -4.220145431376824
        ]
      }
    },
    {
      "type": "Feature",
      "properties": {
        "norad_id": 66961,
        "name": "STARLINK-35761",
        "group": "last-30-days",
        "lat": -2.915257102737779,
        "lon": 74.75884127706551,
        "alt_km": 399.29630248477224,
        "timestamp": "2025-12-27T10:28:57.516876+00:00",
        "meta_object_name": "STARLINK-35761",
        "meta_object_id": "2025-288C",
        "meta_epoch": "2025-12-27T04:00:01.998720",
        "meta_mean_motion": 15.57185827,
        "meta_eccentricity": 0.0001282,
        "meta_inclination": 42.9996,
        "meta_ra_of_asc_node": 79.4861,
        "meta_arg_of_pericenter": 265.9734,
        "meta_mean_anomaly": 14.5129,
        "meta_ephemeris_type": 0,
        "meta_classification_type": "U",
        "meta_norad_cat_id": 66961,
        "meta_element_set_no": 999,
        "meta_rev_at_epoch": 414,
        "meta_bstar": -0.030691,
        "meta_mean_motion_dot": -0.02046221,
        "meta_mean_motion_ddot": 0,
        "tle_line1": "1 66961U 25288C   25361.16668980 -.02046221  00000+0 -30691-1 0  9992",
        "tle_line2": "2 66961  42.9996  79.4861 0001282 265.9734  14.5129 15.57185827  4143"
      },
      "geometry": {
        "type": "Point",
        "coordinates": [
          74.75884127706551,
          -2.915257102737779
        ]
      }
    }
  ]
}